{"type": "FeatureCollection", "features": [ {"type": "Feature", "properties": {"norad_id": 60989, "name": "SENTINEL-2C", "group": "resource", "lat": 64.4692493713117, "lon": -92.77922766824362, "alt_km": 781.8689065907629, "timestamp": "2025-12-22T11:33:20.087387+00:00", "meta": {"OBJECT_NAME": "SENTINEL-2C", "OBJECT_ID": "2024-157A", "EPOCH": "2025-12-22T02:37:57.768096", "MEAN_MOTION": 14.30821207, "ECCENTRICITY": 0.0001193, "INCLINATION": 98.5671, "RA_OF_ASC_NODE": 68.4569, "ARG_OF_PERICENTER": 95.079, "MEAN_ANOMALY": 265.0529, "EPHEMERIS_TYPE": 0, "CLASSIFICATION_TYPE": "U", "NORAD_CAT_ID": 60989, "ELEMENT_SET_NO": 999, "REV_AT_EPOCH": 6766, "BSTAR": 7.3686e-05, "MEAN_MOTION_DOT": 1.5e-06, "MEAN_MOTION_DDOT": 0}, "tle": {"line1": "1 60989U 24157A   25356.10969639  .00000150  00000+0  73686-4 0  9994", "line2": "2 60989  98.5671  68.4569 0001193  95.0790 265.0529 14.30821207 67664"}}, "geometry": {"type": "Point", "coordinates": [-92.77922766824362, 64.4692493713117]}}, {"type": "Feature", "properties": {"norad_id": 61735, "name": "IONOSFERA-M 1", "group": "resource", "lat": 78.9514178955849, "lon": 98.23622424828412, "alt_km": 808.8057615902526, "timestamp": "2025-12-22T11:33:20.087399+00:00", "meta": {"OBJECT_NAME": "IONOSFERA-M 1", "OBJECT_ID": "2024-199A", "EPOCH": "2025-12-22T04:21:03.621024", "MEAN_MOTION": 14.22716102, "ECCENTRICITY": 4.98e-05, "INCLINATION": 98.7397, "RA_OF_ASC_NODE": 225.9568, "ARG_OF_PERICENTER": 8.6514, "MEAN_ANOMALY": 351.4673, "EPHEMERIS_TYPE": 0, "CLASSIFICATION_TYPE": "U", "NORAD_CAT_ID": 61735, "ELEMENT_SET_NO": 999, "REV_AT_EPOCH": 10253, "BSTAR": 5.0142e-05, "MEAN_MOTION_DOT": 6.8e-07, "MEAN_MOTION_DDOT": 0}, "tle": {"line1": "1 61735U 24199A   25356.18129191  .00000068  00000+0  50142-4 0  9999", "line2": "2 61735  98.7397 225.9568 0000498   8.6514 351.4673 14.22716102102535"}}, "geometry": {"type": "Point", "coordinates": [98.23622424828412, 78.9514178955849]}}, {"type": "Feature", "properties": {"norad_id": 61736, "name": "IONOSFERA-M 2", "group": "resource", "lat": -77.1311696375158, "lon": -91.50872267849311, "alt_km": 824.7992581669241, "timestamp": "2025-12-22T11:33:20.087412+00:00", "meta": {"OBJECT_NAME": "IONOSFERA-M 2", "OBJECT_ID": "2024-199B", "EPOCH": "2025-12-22T05:10:55.913952", "MEAN_MOTION": 14.22718253, "ECCENTRICITY": 0.0001829, "INCLINATION": 98.7396, "RA_OF_ASC_NODE": 225.9035, "ARG_OF_PERICENTER": 98.421, "MEAN_ANOMALY": 261.7176, "EPHEMERIS_TYPE": 0, "CLASSIFICATION_TYPE": "U", "NORAD_CAT_ID": 61736, "ELEMENT_SET_NO": 999, "REV_AT_EPOCH": 10566, "BSTAR": 4.849e-05, "MEAN_MOTION_DOT": 6.4e-07, "MEAN_MOTION_DDOT": 0}, "tle": {"line1": "1 61736U 24199B   25356.21592493  .00000064  00000+0  48490-4 0  9992", "line2": "2 61736  98.7396 225.9035 0001829  98.4210 261.7176 14.22718253105660"}}, "geometry": {"type": "Point", "coordinates": [-91.50872267849311, -77.1311696375158]}}, {"type": "Feature", "properties": {"norad_id": 63772, "name": "BIOMASS", "group": "resource", "lat": -59.94898207411692, "lon": -12.846665335294237, "alt_km": 676.784424322017, "timestamp": "2025-12-22T11:33:20.087422+00:00", "meta": {"OBJECT_NAME": "BIOMASS", "OBJECT_ID": "2025-090A", "EPOCH": "2025-12-22T00:38:34.757088", "MEAN_MOTION": 14.67536549, "ECCENTRICITY": 0.0001075, "INCLINATION": 98.0697, "RA_OF_ASC_NODE": 180.901, "ARG_OF_PERICENTER": 83.9982, "MEAN_ANOMALY": 276.1345, "EPHEMERIS_TYPE": 0, "CLASSIFICATION_TYPE": "U", "NORAD_CAT_ID": 63772, "ELEMENT_SET_NO": 999, "REV_AT_EPOCH": 3470, "BSTAR": 0.0002174, "MEAN_MOTION_DOT": 1.185e-05, "MEAN_MOTION_DDOT": 0}, "tle": {"line1": "1 63772U 25090A   25356.02679117  .00001185  00000+0  21740-3 0  9996", "line2": "2 63772  98.0697 180.9010 0001075  83.9982 276.1345 14.67536549 34709"}}, "geometry": {"type": "Point", "coordinates": [-12.846665335294237, -59.94898207411692]}}, {"type": "Feature", "properties": {"norad_id": 64694, "name": "GOSAT-GW (IBUKI GW)", "group": "resource", "lat": 81.8458353554141, "lon": -167.4558671610076, "alt_km": 660.393898631336, "timestamp": "2025-12-22T11:33:20.087432+00:00", "meta": {"OBJECT_NAME": "GOSAT-GW (IBUKI GW)", "OBJECT_ID": "2025-141A", "EPOCH": "2025-12-22T04:35:44.887200", "MEAN_MOTION": 14.67563181, "ECCENTRICITY": 0.0001431, "INCLINATION": 98.0437, "RA_OF_ASC_NODE": 291.5335, "ARG_OF_PERICENTER": 84.4373, "MEAN_ANOMALY": 275.6995, "EPHEMERIS_TYPE": 0, "CLASSIFICATION_TYPE": "U", "NORAD_CAT_ID": 64694, "ELEMENT_SET_NO": 999, "REV_AT_EPOCH": 2588, "BSTAR": 0.00017441, "MEAN_MOTION_DOT": 9.42e-06, "MEAN_MOTION_DDOT": 0}, "tle": {"line1": "1 64694U 25141A   25356.19149175  .00000942  00000+0  17441-3 0  9994", "line2": "2 64694  98.0437 291.5335 0001431  84.4373 275.6995 14.67563181 25886"}}, "geometry": {"type": "Point", "coordinates": [-167.4558671610076, 81.8458353554141]}}, {"type": "Feature", "properties": {"norad_id": 64876, "name": "IONOSFERA-M 3", "group": "resource", "lat": -77.63932999510118, "lon": 1.6151349270520612, "alt_km": 828.5972975345549, "timestamp": "2025-12-22T11:33:20.087442+00:00", "meta": {"OBJECT_NAME": "IONOSFERA-M 3", "OBJECT_ID": "2025-155A", "EPOCH": "2025-12-22T05:10:44.236992", "MEAN_MOTION": 14.21443251, "ECCENTRICITY": 0.0001955, "INCLINATION": 98.5796, "RA_OF_ASC_NODE": 317.8142, "ARG_OF_PERICENTER": 44.5572, "MEAN_ANOMALY": 315.5762, "EPHEMERIS_TYPE": 0, "CLASSIFICATION_TYPE": "U", "NORAD_CAT_ID": 64876, "ELEMENT_SET_NO": 999, "REV_AT_EPOCH": 2126, "BSTAR": 5.2635e-05, "MEAN_MOTION_DOT": 7.2e-07, "MEAN_MOTION_DDOT": 0}, "tle": {"line1": "1 64876U 25155A   25356.21578978  .00000072  00000+0  52635-4 0  9990", "line2": "2 64876  98.5796 317.8142 0001955  44.5572 315.5762 14.21443251 21267"}}, "geometry": {"type": "Point", "coordinates": [1.6151349270520612, -77.63932999510118]}}, {"type": "Feature", "properties": {"norad_id": 64877, "name": "IONOSFERA-M 4", "group": "resource", "lat": 77.08092167769843, "lon": 179.15039438950973, "alt_km": 812.5178751293124, "timestamp": "2025-12-22T11:33:20.087452+00:00", "meta": {"OBJECT_NAME": "IONOSFERA-M 4", "OBJECT_ID": "2025-155B", "EPOCH": "2025-12-22T04:19:51.555648", "MEAN_MOTION": 14.21444361, "ECCENTRICITY": 0.0001366, "INCLINATION": 98.5795, "RA_OF_ASC_NODE": 317.6993, "ARG_OF_PERICENTER": 54.3677, "MEAN_ANOMALY": 305.7628, "EPHEMERIS_TYPE": 0, "CLASSIFICATION_TYPE": "U", "NORAD_CAT_ID": 64877, "ELEMENT_SET_NO": 999, "REV_AT_EPOCH": 2125, "BSTAR": 4.6499e-05, "MEAN_MOTION_DOT": 5.9e-07, "MEAN_MOTION_DDOT": 0}, "tle": {"line1": "1 64877U 25155B   25356.18045782  .00000059  00000+0  46499-4 0  9995", "line2": "2 64877  98.5795 317.6993 0001366  54.3677 305.7628 14.21444361 21254"}}, "geometry": {"type": "Point", "coordinates": [179.15039438950973, 77.08092167769843]}}, {"type": "Feature", "properties": {"norad_id": 64899, "name": "MICROCARB", "group": "resource", "lat": -46.34290344810383, "lon": -116.80670295556622, "alt_km": 665.7353357968786, "timestamp": "2025-12-22T11:33:20.087462+00:00", "meta": {"OBJECT_NAME": "MICROCARB", "OBJECT_ID": "2025-156A", "EPOCH": "2025-12-22T04:00:16.111296", "MEAN_MOTION": 14.72071696, "ECCENTRICITY": 0.0017561, "INCLINATION": 98.0014, "RA_OF_ASC_NODE": 71.3608, "ARG_OF_PERICENTER": 116.4521, "MEAN_ANOMALY": 243.8491, "EPHEMERIS_TYPE": 0, "CLASSIFICATION_TYPE": "U", "NORAD_CAT_ID": 64899, "ELEMENT_SET_NO": 999, "REV_AT_EPOCH": 2192, "BSTAR": 0.00011168, "MEAN_MOTION_DOT": 6.54e-06, "MEAN_MOTION_DDOT": 0}, "tle": {"line1": "1 64899U 25156A   25356.16685314  .00000654  00000+0  11168-3 0  9994", "line2": "2 64899  98.0014  71.3608 0017561 116.4521 243.8491 14.72071696 21923"}}, "geometry": {"type": "Point", "coordinates": [-116.80670295556622, -46.34290344810383]}}, {"type": "Feature", "properties": {"norad_id": 64900, "name": "CO3D 3", "group": "resource", "lat": 26.20997922230049, "lon": -103.60514597488272, "alt_km": 504.1929663139481, "timestamp": "2025-12-22T11:33:20.087472+00:00", "meta": {"OBJECT_NAME": "CO3D 3", "OBJECT_ID": "2025-156B", "EPOCH": "2025-12-22T04:33:50.218848", "MEAN_MOTION": 15.20205708, "ECCENTRICITY": 0.0001362, "INCLINATION": 97.4341, "RA_OF_ASC_NODE": 72.4223, "ARG_OF_PERICENTER": 75.4688, "MEAN_ANOMALY": 284.6698, "EPHEMERIS_TYPE": 0, "CLASSIFICATION_TYPE": "U", "NORAD_CAT_ID": 64900, "ELEMENT_SET_NO": 999, "REV_AT_EPOCH": 2264, "BSTAR": 0.00027135, "MEAN_MOTION_DOT": 5.812e-05, "MEAN_MOTION_DDOT": 0}, "tle": {"line1": "1 64900U 25156B   25356.19016457  .00005812  00000+0  27135-3 0  9998", "line2": "2 64900  97.4341  72.4223 0001362  75.4688 284.6698 15.20205708 22646"}}, "geometry": {"type": "Point", "coordinates": [-103.60514597488272, 26.20997922230049]}}, {"type": "Feature", "properties": {"norad_id": 64901, "name": "CO3D 4", "group": "resource", "lat": 27.065000486288515, "lon": -103.46535803953847, "alt_km": 503.31475297909947, "timestamp": "2025-12-22T11:33:20.087482+00:00", "meta": {"OBJECT_NAME": "CO3D 4", "OBJECT_ID": "2025-156C", "EPOCH": "2025-12-22T04:34:03.525312", "MEAN_MOTION": 15.20213666, "ECCENTRICITY": 0.0001324, "INCLINATION": 97.4341, "RA_OF_ASC_NODE": 72.4222, "ARG_OF_PERICENTER": 164.9847, "MEAN_ANOMALY": 195.1428, "EPHEMERIS_TYPE": 0, "CLASSIFICATION_TYPE": "U", "NORAD_CAT_ID": 64901, "ELEMENT_SET_NO": 999, "REV_AT_EPOCH": 2264, "BSTAR": 0.00030736, "MEAN_MOTION_DOT": 6.594e-05, "MEAN_MOTION_DDOT": 0}, "tle": {"line1": "1 64901U 25156C   25356.19031858  .00006594  00000+0  30736-3 0  9990", "line2": "2 64901  97.4341  72.4222 0001324 164.9847 195.1428 15.20213666 22644"}}, "geometry": {"type": "Point", "coordinates": [-103.46535803953847, 27.065000486288515]}}]}